{
  "type": "FeatureCollection",
  "features": [
    {"type":"Feature","properties":{"dataset":"jmp","name":"Nairobi","place":"Kenya","radius_km":180},"geometry":{"type":"Point","coordinates":[36.8219,-1.2921]}},
    {"type":"Feature","properties":{"dataset":"jmp","name":"Dhaka","place":"Bangladesh","radius_km":160},"geometry":{"type":"Point","coordinates":[90.4125,23.8103]}},
    {"type":"Feature","properties":{"dataset":"jmp","name":"Abuja","place":"Nigeria","radius_km":200},"geometry":{"type":"Point","coordinates":[7.3986,9.0765]}},
    {"type":"Feature","properties":{"dataset":"jmp","name":"New Delhi","place":"India","radius_km":220},"geometry":{"type":"Point","coordinates":[77.209,28.6139]}},
    {"type":"Feature","properties":{"dataset":"jmp","name":"Brasília","place":"Brazil","radius_km":240},"geometry":{"type":"Point","coordinates":[-47.8828,-15.7939]}},
    {"type":"Feature","properties":{"dataset":"jmp","name":"Lima","place":"Peru","radius_km":180},"geometry":{"type":"Point","coordinates":[-77.0428,-12.0464]}},
    {"type":"Feature","properties":{"dataset":"jmp","name":"Addis Ababa","place":"Ethiopia","radius_km":180},"geometry":{"type":"Point","coordinates":[38.7469,9.032]}},
    {"type":"Feature","properties":{"dataset":"jmp","name":"Kampala","place":"Uganda","radius_km":140},"geometry":{"type":"Point","coordinates":[32.5825,0.3476]}},
    {"type":"Feature","properties":{"dataset":"jmp","name":"Dakar","place":"Senegal","radius_km":140},"geometry":{"type":"Point","coordinates":[-17.4677,14.7167]}},
    {"type":"Feature","properties":{"dataset":"jmp","name":"Accra","place":"Ghana","radius_km":140},"geometry":{"type":"Point","coordinates":[-0.187,5.6037]}},
    {"type":"Feature","properties":{"dataset":"jmp","name":"Cairo","place":"Egypt","radius_km":180},"geometry":{"type":"Point","coordinates":[31.2357,30.0444]}},
    {"type":"Feature","properties":{"dataset":"jmp","name":"Kinshasa","place":"DR Congo","radius_km":200},"geometry":{"type":"Point","coordinates":[15.2663,-4.4419]}},
    {"type":"Feature","properties":{"dataset":"jmp","name":"Mexico City","place":"Mexico","radius_km":180},"geometry":{"type":"Point","coordinates":[-99.1332,19.4326]}},
    {"type":"Feature","properties":{"dataset":"schools","name":"Kigali","place":"Rwanda","radius_km":120},"geometry":{"type":"Point","coordinates":[30.0619,-1.9441]}},
    {"type":"Feature","properties":{"dataset":"schools","name":"Lilongwe","place":"Malawi","radius_km":120},"geometry":{"type":"Point","coordinates":[33.7741,-13.9626]}},
    {"type":"Feature","properties":{"dataset":"schools","name":"Lusaka","place":"Zambia","radius_km":130},"geometry":{"type":"Point","coordinates":[28.3228,-15.3875]}},
    {"type":"Feature","properties":{"dataset":"schools","name":"Dar es Salaam","place":"Tanzania","radius_km":120},"geometry":{"type":"Point","coordinates":[39.2083,-6.7924]}},
    {"type":"Feature","properties":{"dataset":"schools","name":"Ouagadougou","place":"Burkina Faso","radius_km":130},"geometry":{"type":"Point","coordinates":[-1.5197,12.3714]}},
    {"type":"Feature","properties":{"dataset":"schools","name":"Bamako","place":"Mali","radius_km":140},"geometry":{"type":"Point","coordinates":[-8.0029,12.6392]}},
    {"type":"Feature","properties":{"dataset":"schools","name":"Antananarivo","place":"Madagascar","radius_km":140},"geometry":{"type":"Point","coordinates":[47.5079,-18.8792]}},
    {"type":"Feature","properties":{"dataset":"schools","name":"Vientiane","place":"Laos","radius_km":110},"geometry":{"type":"Point","coordinates":[102.6331,17.9757]}},
    {"type":"Feature","properties":{"dataset":"schools","name":"Hanoi","place":"Vietnam","radius_km":120},"geometry":{"type":"Point","coordinates":[105.8342,21.0278]}},
    {"type":"Feature","properties":{"dataset":"schools","name":"Colombo","place":"Sri Lanka","radius_km":100},"geometry":{"type":"Point","coordinates":[79.8612,6.9271]}},
    {"type":"Feature","properties":{"dataset":"care","name":"Kathmandu","place":"Nepal","radius_km":110},"geometry":{"type":"Point","coordinates":[85.324,27.7172]}},
    {"type":"Feature","properties":{"dataset":"care","name":"Phnom Penh","place":"Cambodia","radius_km":110},"geometry":{"type":"Point","coordinates":[104.9282,11.5564]}},
    {"type":"Feature","properties":{"dataset":"care","name":"Port-au-Prince","place":"Haiti","radius_km":90},"geometry":{"type":"Point","coordinates":[-72.3074,18.5944]}},
    {"type":"Feature","properties":{"dataset":"care","name":"Maputo","place":"Mozambique","radius_km":130},"geometry":{"type":"Point","coordinates":[32.5732,-25.9692]}},
    {"type":"Feature","properties":{"dataset":"care","name":"Suva","place":"Fiji","radius_km":80},"geometry":{"type":"Point","coordinates":[178.4419,-18.1416]}},
    {"type":"Feature","properties":{"dataset":"glass","name":"London","place":"United Kingdom","radius_km":160},"geometry":{"type":"Point","coordinates":[-0.1278,51.5074]}},
    {"type":"Feature","properties":{"dataset":"glass","name":"Paris","place":"France","radius_km":160},"geometry":{"type":"Point","coordinates":[2.3522,48.8566]}},
    {"type":"Feature","properties":{"dataset":"glass","name":"Berlin","place":"Germany","radius_km":150},"geometry":{"type":"Point","coordinates":[13.405,52.52]}},
    {"type":"Feature","properties":{"dataset":"glass","name":"Stockholm","place":"Sweden","radius_km":140},"geometry":{"type":"Point","coordinates":[18.0686,59.3293]}},
    {"type":"Feature","properties":{"dataset":"glass","name":"Tokyo","place":"Japan","radius_km":160},"geometry":{"type":"Point","coordinates":[139.6503,35.6762]}},
    {"type":"Feature","properties":{"dataset":"glass","name":"Canberra","place":"Australia","radius_km":180},"geometry":{"type":"Point","coordinates":[149.13,-35.2809]}},
    {"type":"Feature","properties":{"dataset":"glass","name":"Ottawa","place":"Canada","radius_km":180},"geometry":{"type":"Point","coordinates":[-75.6972,45.4215]}},
    {"type":"Feature","properties":{"dataset":"glass","name":"Pretoria","place":"South Africa","radius_km":160},"geometry":{"type":"Point","coordinates":[28.2293,-25.7479]}},
    {"type":"Feature","properties":{"dataset":"glass","name":"Bangkok","place":"Thailand","radius_km":150},"geometry":{"type":"Point","coordinates":[100.5018,13.7563]}},
    {"type":"Feature","properties":{"dataset":"glass","name":"Seoul","place":"South Korea","radius_km":120},"geometry":{"type":"Point","coordinates":[126.978,37.5665]}},
    {"type":"Feature","properties":{"dataset":"glass","name":"Buenos Aires","place":"Argentina","radius_km":180},"geometry":{"type":"Point","coordinates":[-58.3816,-34.6037]}},
    {"type":"Feature","properties":{"dataset":"nors","name":"Atlanta","place":"CDC NORS","radius_km":220},"geometry":{"type":"Point","coordinates":[-84.328,33.799]}},
    {"type":"Feature","properties":{"dataset":"nors","name":"Albany","place":"New York","radius_km":180},"geometry":{"type":"Point","coordinates":[-73.7562,42.6526]}},
    {"type":"Feature","properties":{"dataset":"nors","name":"Sacramento","place":"California","radius_km":200},"geometry":{"type":"Point","coordinates":[-121.4944,38.5816]}},
    {"type":"Feature","properties":{"dataset":"nors","name":"Austin","place":"Texas","radius_km":200},"geometry":{"type":"Point","coordinates":[-97.7431,30.2672]}},
    {"type":"Feature","properties":{"dataset":"nors","name":"Tallahassee","place":"Florida","radius_km":180},"geometry":{"type":"Point","coordinates":[-84.2807,30.4383]}},
    {"type":"Feature","properties":{"dataset":"nors","name":"Denver","place":"Colorado","radius_km":180},"geometry":{"type":"Point","coordinates":[-104.9903,39.7392]}},
    {"type":"Feature","properties":{"dataset":"nors","name":"Boston","place":"Massachusetts","radius_km":140},"geometry":{"type":"Point","coordinates":[-71.0589,42.3601]}},
    {"type":"Feature","properties":{"dataset":"streams","name":"Coimbra","place":"Portugal","radius_km":40},"geometry":{"type":"Point","coordinates":[-8.4103,40.2033]}},
    {"type":"Feature","properties":{"dataset":"streams","name":"Toulouse","place":"France","radius_km":40},"geometry":{"type":"Point","coordinates":[1.4442,43.6047]}},
    {"type":"Feature","properties":{"dataset":"streams","name":"Ghent","place":"Belgium","radius_km":35},"geometry":{"type":"Point","coordinates":[3.7174,51.0543]}},
    {"type":"Feature","properties":{"dataset":"streams","name":"Benevento","place":"Italy","radius_km":35},"geometry":{"type":"Point","coordinates":[14.7826,41.1298]}},
    {"type":"Feature","properties":{"dataset":"streams","name":"Oslo","place":"Norway","radius_km":45},"geometry":{"type":"Point","coordinates":[10.7522,59.9139]}},
    {"type":"Feature","properties":{"dataset":"climate","name":"Jakarta","place":"Indonesia","radius_km":80},"geometry":{"type":"Point","coordinates":[106.8456,-6.2088]}},
    {"type":"Feature","properties":{"dataset":"climate","name":"Manila","place":"Philippines","radius_km":70},"geometry":{"type":"Point","coordinates":[120.9842,14.5995]}},
    {"type":"Feature","properties":{"dataset":"climate","name":"Ho Chi Minh","place":"Vietnam","radius_km":80},"geometry":{"type":"Point","coordinates":[106.6297,10.8231]}},
    {"type":"Feature","properties":{"dataset":"climate","name":"Lagos","place":"Nigeria","radius_km":70},"geometry":{"type":"Point","coordinates":[3.3792,6.5244]}},
    {"type":"Feature","properties":{"dataset":"climate","name":"Miami","place":"USA","radius_km":60},"geometry":{"type":"Point","coordinates":[-80.1918,25.7617]}},
    {"type":"Feature","properties":{"dataset":"climate","name":"Mumbai","place":"India","radius_km":70},"geometry":{"type":"Point","coordinates":[72.8777,19.076]}},
    {"type":"Feature","properties":{"dataset":"climate","name":"Mombasa","place":"Kenya","radius_km":60},"geometry":{"type":"Point","coordinates":[39.6682,-4.0435]}},
    {"type":"Feature","properties":{"dataset":"climate","name":"Sydney","place":"Australia","radius_km":60},"geometry":{"type":"Point","coordinates":[151.2093,-33.8688]}},
    {"type":"Feature","properties":{"dataset":"climate","name":"Cape Town","place":"South Africa","radius_km":60},"geometry":{"type":"Point","coordinates":[18.4241,-33.9249]}},
    {"type":"Feature","properties":{"dataset":"climate","name":"Rotterdam","place":"Netherlands","radius_km":50},"geometry":{"type":"Point","coordinates":[4.4777,51.9244]}}
  ]
}
